NORAD_CAT_ID,OBJECT_NAME,OBJECT_TYPE,EPOCH,MEAN_MOTION,ECCENTRICITY,INCLINATION,RA_OF_ASC_NODE,ARG_OF_PERICENTER,MEAN_ANOMALY,BSTAR,MEAN_MOTION_DOT,MEAN_MOTION_DDOT,TLE_LINE0,TLE_LINE1,TLE_LINE2,SEMIMAJOR_AXIS,PERIOD,APOGEE,PERIGEE,DECAYED
49737.0,STARLINK-3225,PAYLOAD,2022-04-25 14:00:01,15.08794204,0.0001994,53.2199,17.2885,42.4205,344.6654,0.0028026999999999,0.00044543,0.0,0 STARLINK-3225,1 49737U 21115P   22115.58334491  .00044543  00000-0  28027-2 0  9999,2 49737  53.2199  17.2885 0001994  42.4205 344.6654 15.08794204  3603,6918.02,95.44,541.265,538.506,0.0
49737.0,STARLINK-3225,PAYLOAD,2022-04-25 22:00:00,15.08836315,0.0002173,53.2202,15.7936,42.4206,356.2222,-0.00082053,-0.00013322,0.0,0 STARLINK-3225,1 49737U 21115P   22115.91667824 -.00013322  00000-0 -82053-3 0  9998,2 49737  53.2202  15.7936 0002173  42.4206 356.2222 15.08836315  3610,6917.892,95.438,541.26,538.253,0.0
49737.0,STARLINK-3225,PAYLOAD,2022-04-26 14:00:01,15.08841525,0.0002054,53.2201,12.7997,42.8911,19.0067,0.0018118,0.00028666,0.0,0 STARLINK-3225,1 49737U 21115P   22116.58335648  .00028666  00000-0  18118-2 0  9993,2 49737  53.2201  12.7997 0002054  42.8911  19.0067 15.08841525 23317,6917.876,95.437,541.1619999999998,538.32,0.0
49737.0,STARLINK-3225,PAYLOAD,2022-04-26 22:00:00,15.08862047,0.0002173,53.2203,11.3049,40.3515,33.0903,-0.0030355,-0.00048305,0.0,0 STARLINK-3225,1 49737U 21115P   22116.91667824 -.00048305  00000-0 -30355-2 0  9995,2 49737  53.2203  11.3049 0002173  40.3515  33.0903 15.08862047  3570,6917.813,95.436,541.181,538.175,0.0
49737.0,STARLINK-3225,PAYLOAD,2022-04-27 06:00:00,15.08825926,0.0002194,53.2203,9.809,35.8475,49.1961,0.00098853,0.00015473,0.0,0 STARLINK-3225,1 49737U 21115P   22117.25001157  .00015473  00000-0  98853-3 0  9990,2 49737  53.2203   9.8090 0002194  35.8475  49.1961 15.08825926 23417,6917.9230000000025,95.438,541.306,538.271,0.0
49737.0,STARLINK-3225,PAYLOAD,2022-04-27 14:00:01,15.08823281,0.0002044,53.22,8.311,40.5863,56.1104,0.0024224,0.00038458,0.0,0 STARLINK-3225,1 49737U 21115P   22117.58335648  .00038458  00000-0  24224-2 0  9999,2 49737  53.2200   8.3110 0002044  40.5863  56.1104 15.08823281  3595,6917.931,95.439,541.211,538.382,0.0
49737.0,STARLINK-3225,PAYLOAD,2022-04-28 14:00:01,15.08829752,0.0002058,53.2188,3.8223,40.9036,90.5423,0.0032220999999999,0.00051352,0.0,0 STARLINK-3225,1 49737U 21115P   22118.58334491  .00051352  00000-0  32221-2 0  9999,2 49737  53.2188   3.8223 0002058  40.9036  90.5423 15.08829752 23616,6917.9119999999975,95.438,541.2,538.3530000000002,0.0
49737.0,STARLINK-3225,PAYLOAD,2022-04-29 06:00:00,15.08862608,0.000218,53.2186,0.8312,35.0854,119.5711,-0.0037006,-0.00058742,0.0,0 STARLINK-3225,1 49737U 21115P   22119.25001157 -.00058742  00000-0 -37006-2 0  9992,2 49737  53.2186   0.8312 0002180  35.0854 119.5711 15.08862608 23720,6917.811,95.436,541.184,538.168,0.0
49737.0,STARLINK-3225,PAYLOAD,2022-04-29 14:00:01,15.08794735,0.0001999,53.2188,359.3335,40.2778,125.9831,0.0037841,0.00060378,0.0,0 STARLINK-3225,1 49737U 21115P   22119.58334491  .00060378  00000-0  37841-2 0  9991,2 49737  53.2188 359.3335 0001999  40.2778 125.9831 15.08794735  3603,6918.019,95.44,541.2669999999998,538.501,0.0
49737.0,STARLINK-3225,PAYLOAD,2022-04-29 22:00:00,15.08841684,0.0002177,53.2187,357.8388,37.8734,139.9519,-0.0027404,-0.00043641,0.0,0 STARLINK-3225,1 49737U 21115P   22119.91667824 -.00043641  00000-0 -27404-2 0  9997,2 49737  53.2187 357.8388 0002177  37.8734 139.9519 15.08841684 23826,6917.875,95.437,541.246,538.234,0.0
49737.0,STARLINK-3225,PAYLOAD,2022-04-30 14:00:01,15.08788576,0.0002025,53.2184,354.8447,42.8048,158.1657,0.0032662,0.00052004,0.0,0 STARLINK-3225,1 49737U 21115P   22120.58334491  .00052004  00000-0  32662-2 0  9996,2 49737  53.2184 354.8447 0002025  42.8048 158.1657 15.08788576 23929,6918.038000000001,95.441,541.303,538.502,0.0
49737.0,STARLINK-3225,PAYLOAD,2022-04-30 22:00:00,15.08821541,0.0002231,53.2182,353.3502,40.128,172.4026,0.00024872,3.67e-05,0.0,0 STARLINK-3225,1 49737U 21115P   22120.91667824  .00003670  00000-0  24872-3 0  9992,2 49737  53.2182 353.3502 0002231  40.1280 172.4026 15.08821541  3568,6917.937,95.439,541.345,538.258,0.0
49737.0,STARLINK-3225,PAYLOAD,2022-05-01 06:00:00,15.08846745,0.0002205,53.2178,351.8534,39.9459,184.1542,-0.00074082,-0.00012062,0.0,0 STARLINK-3225,1 49737U 21115P   22121.25001157 -.00012062  00000-0 -74082-3 0  9996,2 49737  53.2178 351.8534 0002205  39.9459 184.1542 15.08846745 24026,6917.86,95.437,541.25,538.1990000000002,0.0
49737.0,STARLINK-3225,PAYLOAD,2022-05-01 14:00:01,15.08841301,0.00021,53.2178,350.3558,46.4035,189.2933,-0.00066777,-0.00010901,0.0,0 STARLINK-3225,1 49737U 21115P   22121.58334491 -.00010901  00000-0 -66777-3 0  9994,2 49737  53.2178 350.3558 0002100  46.4035 189.2933 15.08841301  3584,6917.876,95.437,541.194,538.289,0.0
49737.0,STARLINK-3225,PAYLOAD,2022-05-01 22:00:01,15.08819009,0.0002361,53.2176,348.8612,44.698,202.6541,0.00026213,3.884e-05,0.0,0 STARLINK-3225,1 49737U 21115P   22121.91668981  .00003884  00000-0  26213-3 0  9996,2 49737  53.2176 348.8612 0002361  44.6980 202.6541 15.08819009  3566,6917.945,95.439,541.443,538.1759999999998,0.0
49737.0,STARLINK-3225,PAYLOAD,2022-05-02 14:00:01,15.08828074,0.0002195,53.2172,345.8667,49.5773,220.8708,0.0023913,0.00037963,0.0,0 STARLINK-3225,1 49737U 21115P   22122.58334491  .00037963  00000-0  23913-2 0  9994,2 49737  53.2172 345.8667 0002195  49.5773 220.8708 15.08828074 24223,6917.917,95.438,541.3,538.263,0.0
49737.0,STARLINK-3225,PAYLOAD,2022-05-02 22:00:01,15.08847059,0.0002355,53.2172,344.3721,45.0366,237.0724,-0.0021414,-0.00034215,0.0,0 STARLINK-3225,1 49737U 21115P   22122.91668981 -.00034215  00000-0 -21414-2 0  9998,2 49737  53.2172 344.3721 0002355  45.0366 237.0724 15.08847059  3617,6917.859,95.437,541.3530000000002,538.095,0.0
49737.0,STARLINK-3225,PAYLOAD,2022-05-03 04:00:00,15.08830026,0.0002324,53.2168,343.2496,42.7686,157.9706,0.00036271,5.488e-05,0.0,0 STARLINK-3225,1 49737U 21115P   22123.16667824  .00005488  00000-0  36271-3 0  9997,2 49737  53.2168 343.2496 0002324  42.7686 157.9706 15.08830026 24310,6917.911,95.438,541.384,538.168,0.0
49737.0,STARLINK-3225,PAYLOAD,2022-05-03 14:00:01,15.08828422,0.0002205,53.2171,341.3775,49.0899,256.1317,0.0023171,0.0003677,0.0,0 STARLINK-3225,1 49737U 21115P   22123.58334491  .00036770  00000-0  23171-2 0  9996,2 49737  53.2171 341.3775 0002205  49.0899 256.1317 15.08828422  3568,6917.916,95.438,541.306,538.255,0.0
49737.0,STARLINK-3225,PAYLOAD,2022-05-03 22:00:00,15.08843253,0.0002404,53.217,339.8828,44.9619,271.8592,0.00068626,0.00010652,0.0,0 STARLINK-3225,1 49737U 21115P   22123.91667824  .00010652  00000-0  68626-3 0  9998,2 49737  53.2170 339.8828 0002404  44.9619 271.8592 15.08843253  3561,6917.87,95.437,541.399,538.072,0.0
49737.0,STARLINK-3225,PAYLOAD,2022-05-04 06:00:02,15.08877048,0.0002295,53.2171,338.3854,43.4501,285.0348,-0.0041179,-0.000653,0.0,0 STARLINK-3225,1 49737U 21115P   22124.25002315 -.00065300  00000-0 -41179-2 0  9999,2 49737  53.2171 338.3854 0002295  43.4501 285.0348 15.08877048 24475,6917.767,95.435,541.22,538.045,0.0
49737.0,STARLINK-3225,PAYLOAD,2022-05-04 14:00:01,15.08835396,0.0002187,53.2174,336.8881,47.5784,292.4546,0.0022259,0.00035311,0.0,0 STARLINK-3225,1 49737U 21115P   22124.58334491  .00035311  00000-0  22259-2 0  9993,2 49737  53.2174 336.8881 0002187  47.5784 292.4546 15.08835396  3591,6917.894,95.438,541.2719999999998,538.247,0.0
49737.0,STARLINK-3225,PAYLOAD,2022-05-04 20:00:01,15.08862475,0.0002332,53.2173,335.7672,44.1311,214.6649,-0.0016484,-0.00026444,0.0,0 STARLINK-3225,1 49737U 21115P   22124.83335648 -.00026444  00000-0 -16484-2 0  9998,2 49737  53.2173 335.7672 0002332  44.1311 214.6649 15.08862475 24565,6917.812,95.436,541.29,538.063,0.0
49737.0,STARLINK-3225,PAYLOAD,2022-05-04 22:00:01,15.08857982,0.0002379,53.2174,335.3935,43.0857,308.6144,-0.0013999,-0.00022511,0.0,0 STARLINK-3225,1 49737U 21115P   22124.91668981 -.00022511  00000-0 -13999-2 0  9995,2 49737  53.2174 335.3935 0002379  43.0857 308.6144 15.08857982  3601,6917.825,95.436,541.336,538.045,0.0
49737.0,STARLINK-3225,PAYLOAD,2022-05-05 14:00:01,15.08843592,0.0002134,53.2179,332.3989,44.9525,329.8868,-0.0010375,-0.00016764,0.0,0 STARLINK-3225,1 49737U 21115P   22125.58334491 -.00016764  00000-0 -10375-2 0  9993,2 49737  53.2179 332.3989 0002134  44.9525 329.8868 15.08843592  3579,6917.869000000002,95.437,541.211,538.258,0.0
49737.0,STARLINK-3225,PAYLOAD,2022-05-05 22:00:00,15.08816513,0.0002328,53.2179,330.9043,40.6657,345.7683,0.0013144,0.00020679,0.0,0 STARLINK-3225,1 49737U 21115P   22125.91667824  .00020679  00000-0  13144-2 0  9994,2 49737  53.2179 330.9043 0002328  40.6657 345.7683 15.08816513 24723,6917.9519999999975,95.439,541.428,538.207,0.0
49737.0,STARLINK-3225,PAYLOAD,2022-05-06 14:00:01,15.08853847,0.0002119,53.2184,327.9099,44.3947,5.2008,-0.00089096,-0.00014446,0.0,0 STARLINK-3225,1 49737U 21115P   22126.58334491 -.00014446  00000-0 -89096-3 0  9996,2 49737  53.2184 327.9099 0002119  44.3947   5.2008 15.08853847  3612,6917.8380000000025,95.437,541.169,538.237,0.0
49737.0,STARLINK-3225,PAYLOAD,2022-05-06 22:00:00,15.08815399,0.0002269,53.2184,326.4154,39.5272,21.6804,0.00085494,0.00013335,0.0,0 STARLINK-3225,1 49737U 21115P   22126.91667824  .00013335  00000-0  85494-3 0  9994,2 49737  53.2184 326.4154 0002269  39.5272  21.6804 15.08815399 24878,6917.956,95.439,541.39,538.251,0.0
49737.0,STARLINK-3225,PAYLOAD,2022-05-07 14:00:01,15.08841054,0.0002068,53.2185,323.4211,44.0486,40.312,0.0006116,9.459e-05,0.0,0 STARLINK-3225,1 49737U 21115P   22127.58334491  .00009459  00000-0  61160-3 0  9995,2 49737  53.2185 323.4211 0002068  44.0486  40.3120 15.08841054  3609,6917.877,95.437,541.173,538.312,0.0
